norad_id,name,regime,epoch,line1,line2,inclination,eccentricity,mean_motion,raan,arg_pericenter,mean_anomaly
36395,SDO,IGO,22277.58156116,1 36395U 10005A   22277.58156116 -.00000064  00000-0  00000-0 0    10\,2 36395  31.8630 107.4557 0001568 211.4132 162.0225  1.00273540 46518,31.863,0.0001568,1.0027354,107.4557,211.4132,162.0225
36395,SDO,IGO,22278.04430340,1 36395U 10005A   22278.04430340 -.00000063  00000-0  00000+0 0  8281\,2 36395  31.8640 107.4481 0001573 211.0461 329.4414  1.00273532 46488,31.864,0.0001573,1.00273532,107.4481,211.0461,329.4414
36395,SDO,IGO,22278.57997069,1 36395U 10005A   22278.57997069 -.00000061  00000-0  00000-0 0    17\,2 36395  31.8651 107.4394 0001596 210.6057 163.2602  1.00273523 46522,31.8651,0.0001596,1.00273523,107.4394,210.6057,163.2602
36395,SDO,IGO,22279.04866439,1 36395U 10005A   22279.04866439 -.00000059  00000-0  00000+0 0  8290\,2 36395  31.8662 107.4317 0001595 209.8782 333.1881  1.00273536 46490,31.8662,0.0001595,1.00273536,107.4317,209.8782,333.1881
36395,SDO,IGO,22279.51433828,1 36395U 10005A   22279.51433828 -.00000057  00000-0  00000-0 0    15\,2 36395  31.8672 107.4241 0001608 209.5254 141.6513  1.00273537 46522,31.8672,0.0001608,1.00273537,107.4241,209.5254,141.6513
36395,SDO,IGO,22280.05299949,1 36395U 10005A   22280.05299949 -.00000055  00000-0  00000+0 0  8307\,2 36395  31.8684 107.4153 0001600 208.6348 337.0010  1.00273574 46505,31.8684,0.00016,1.00273574,107.4153,208.6348,337.001
36395,SDO,IGO,22280.51580604,1 36395U 10005A   22280.51580604 -.00000053  00000-0  00000-0 0    18\,2 36395  31.8693 107.4078 0001605 208.2786 144.4324  1.00273579 46534,31.8693,0.0001605,1.00273579,107.4078,208.2786,144.4324
36395,SDO,IGO,22280.57406171,1 36395U 10005A   22280.57406171 -.00000053  00000-0  00000-0 0    10\,2 36395  31.8695 107.4068 0001605 208.2515 165.4900  1.00273582 46543,31.8695,0.0001605,1.00273582,107.4068,208.2515,165.49
36395,SDO,IGO,22282.54757250,1 36395U 10005A   22282.54757250 -.00000049  00000-0  00000+0 0  8311\,2 36395  31.8736 107.3747 0001571 205.1654 161.0227  1.00273731 46533,31.8736,0.0001571,1.00273731,107.3747,205.1654,161.0227
36395,SDO,IGO,22283.49767562,1 36395U 10005A   22283.49767562 -.00000048  00000-0  00000-0 0    12\,2 36395  31.8755 107.3594 0001553 203.6252 145.5547  1.00273817 46561,31.8755,0.0001553,1.00273817,107.3594,203.6252,145.5547
36395,SDO,IGO,22284.48810443,1 36395U 10005A   22284.48810443 -.00000050  00000-0  00000+0 0  8323\,2 36395  31.8775 107.3434 0001531 202.3451 144.3846  1.00273900 46549,31.8775,0.0001531,1.002739,107.3434,202.3451,144.3846
36395,SDO,IGO,22285.49215994,1 36395U 10005A   22285.49215994 -.00000052  00000-0  00000+0 0  8338\,2 36395  31.8794 107.3272 0001508 201.3550 147.8440  1.00273967 46555,31.8794,0.0001508,1.00273967,107.3272,201.355,147.844
36395,SDO,IGO,22286.52665701,1 36395U 10005A   22286.52665701 -.00000053  00000-0  00000-0 0    17\,2 36395  31.8813 107.3105 0001474 200.6914 161.9665  1.00274010 46602,31.8813,0.0001474,1.0027401,107.3105,200.6914,161.9665
36395,SDO,IGO,22287.51369042,1 36395U 10005A   22287.51369042 -.00000054  00000-0  00000-0 0    17\,2 36395  31.8833 107.2947 0001450 200.2436 158.7388  1.00274028 46601,31.8833,0.000145,1.00274028,107.2947,200.2436,158.7388
36395,SDO,IGO,22288.01626230,1 36395U 10005A   22288.01626230 -.00000054  00000-0  00000-0 0    18\,2 36395  31.8843 107.2867 0001434 200.4215 339.9921  1.00274021 46612,31.8843,0.0001434,1.00274021,107.2867,200.4215,339.9921
36395,SDO,IGO,22289.02057543,1 36395U 10005A   22289.02057543 -.00000052  00000-0  00000+0 0  8368\,2 36395  31.8862 107.2708 0001409 200.3752 342.6009  1.00274005 46591,31.8862,0.0001409,1.00274005,107.2708,200.3752,342.6009
36395,SDO,IGO,22289.49094608,1 36395U 10005A   22289.49094608 -.00000051  00000-0  00000-0 0    16\,2 36395  31.8871 107.2633 0001401 200.2701 152.5122  1.00273989 46621,31.8871,0.0001401,1.00273989,107.2633,200.2701,152.5122
36395,SDO,IGO,22290.02488495,1 36395U 10005A   22290.02488495 -.00000049  00000-0  00000-0 0    15\,2 36395  31.8881 107.2549 0001390 200.5418 344.9952  1.00273967 46638,31.8881,0.000139,1.00273967,107.2549,200.5418,344.9952
36395,SDO,IGO,22291.52566463,1 36395U 10005A   22291.52566463 -.00000042  00000-0  00000+0 0  8383\,2 36395  31.8910 107.2312 0001376 201.2934 166.0326  1.00273874 46628,31.891,0.0001376,1.00273874,107.2312,201.2934,166.0326
36395,SDO,IGO,22292.53792403,1 36395U 10005A   22292.53792403 -.00000037  00000-0  00000+0 0  8395\,2 36395  31.8929 107.2151 0001371 202.2219 170.5346  1.00273792 46633,31.8929,0.0001371,1.00273792,107.2151,202.2219,170.5346
36395,SDO,IGO,22293.53084057,1 36395U 10005A   22293.53084057 -.00000031  00000-0  00000-0 0    11\,2 36395  31.8948 107.1993 0001386 203.2807 167.9230  1.00273699 46679,31.8948,0.0001386,1.00273699,107.1993,203.2807,167.923
36395,SDO,IGO,22294.14954076,1 36395U 10005A   22294.14954076 -.00000028  00000-0  00000+0 0  8402\,2 36395  31.8960 107.1895 0001396 203.7532  30.8038  1.00273624 46644,31.896,0.0001396,1.00273624,107.1895,203.7532,30.8038
36395,SDO,IGO,22294.49415080,1 36395U 10005A   22294.49415080 -.00000026  00000-0  00000-0 0    15\,2 36395  31.8967 107.1839 0001404 204.2905 154.6722  1.00273598 46677,31.8967,0.0001404,1.00273598,107.1839,204.2905,154.6722
36395,SDO,IGO,22295.47737831,1 36395U 10005A   22295.47737831 -.00000023  00000-0  00000+0 0  8413\,2 36395  31.8987 107.1681 0001436 205.3566 148.5550  1.00273479 46651,31.8987,0.0001436,1.00273479,107.1681,205.3566,148.555
36395,SDO,IGO,22296.48160524,1 36395U 10005A   22296.48160524 -.00000021  00000-0  00000-0 0    11\,2 36395  31.9008 107.1520 0001481 206.4479 149.9929  1.00273339 46697,31.9008,0.0001481,1.00273339,107.152,206.4479,149.9929
36395,SDO,IGO,22297.48581986,1 36395U 10005A   22297.48581986 -.00000022  00000-0  00000+0 0  8435\,2 36395  31.9029 107.1358 0001532 207.5263 151.4389  1.00273181 46670,31.9029,0.0001532,1.00273181,107.1358,207.5263,151.4389
36395,SDO,IGO,22298.47488206,1 36395U 10005A   22298.47488206 -.00000025  00000-0  00000-0 0    16\,2 36395  31.9051 107.1198 0001587 208.2999 147.7190  1.00273011 46716,31.9051,0.0001587,1.00273011,107.1198,208.2999,147.719
36395,SDO,IGO,22299.08222250,1 36395U 10005A   22299.08222250 -.00000028  00000-0  00000+0 0  8446\,2 36395  31.9064 107.1099 0001632 208.9056   6.3642  1.00272894 46699,31.9064,0.0001632,1.00272894,107.1099,208.9056,6.3642
36395,SDO,IGO,22299.45645833,1 36395U 10005A   22299.45645833 -.00000030  00000-0  00000-0 0    12\,2 36395  31.9073 107.1039 0001647 208.7317 141.6378  1.00272836 46726,31.9073,0.0001647,1.00272836,107.1039,208.7317,141.6378
36395,SDO,IGO,22300.49841736,1 36395U 10005A   22300.49841736 -.00000036  00000-0  00000+0 0  8450\,2 36395  31.9096 107.0870 0001709 208.7440 157.7740  1.00272650 46713,31.9096,0.0001709,1.0027265,107.087,208.744,157.774
36395,SDO,IGO,22301.43632399,1 36395U 10005A   22301.43632399 -.00000042  00000-0  00000-0 0    10\,2 36395  31.9117 107.0717 0001777 208.3397 136.7632  1.00272503 46746,31.9117,0.0001777,1.00272503,107.0717,208.3397,136.7632
36395,SDO,IGO,22302.50439185,1 36395U 10005A   22302.50439185 -.00000047  00000-0  00000-0 0    12\,2 36395  31.9142 107.0544 0001855 207.6991 162.9766  1.00272349 46760,31.9142,0.0001855,1.00272349,107.0544,207.6991,162.9766
36395,SDO,IGO,22303.50764773,1 36395U 10005A   22303.50764773 -.00000050  00000-0  00000-0 0    11\,2 36395  31.9165 107.0381 0001918 207.1569 165.6939  1.00272245 46778,31.9165,0.0001918,1.00272245,107.0381,207.1569,165.6939
36395,SDO,IGO,22304.48701866,1 36395U 10005A   22304.48701866 -.00000051  00000-0  00000+0 0  8493\,2 36395  31.9187 107.0222 0001971 206.7453 159.6580  1.00272181 46754,31.9187,0.0001971,1.00272181,107.0222,206.7453,159.658
36395,SDO,IGO,22305.44884098,1 36395U 10005A   22305.44884098 -.00000049  00000-0  00000-0 0    17\,2 36395  31.9208 107.0067 0002008 206.3876 147.2329  1.00272152 46787,31.9208,0.0002008,1.00272152,107.0067,206.3876,147.2329
36395,SDO,IGO,22306.45302909,1 36395U 10005A   22306.45302909 -.00000046  00000-0  00000-0 0    12\,2 36395  31.9230 106.9904 0002021 205.9727 150.1589  1.00272155 46790,31.923,0.0002021,1.00272155,106.9904,205.9727,150.1589
36395,SDO,IGO,22307.49831459,1 36395U 10005A   22307.49831459 -.00000043  00000-0  00000-0 0    11\,2 36395  31.9252 106.9736 0002023 205.3418 168.1370  1.00272190 46819,31.9252,0.0002023,1.0027219,106.9736,205.3418,168.137
36395,SDO,IGO,22308.46160667,1 36395U 10005A   22308.46160667 -.00000040  00000-0  00000-0 0    12\,2 36395  31.9272 106.9580 0002015 204.4711 156.7555  1.00272243 46823,31.9272,0.0002015,1.00272243,106.958,204.4711,156.7555
36395,SDO,IGO,22308.96373729,1 36395U 10005A   22308.96373729 -.00000039  00000-0  00000+0 0  8523\,2 36395  31.9283 106.9499 0002004 203.6156 338.8799  1.00272306 46795,31.9283,0.0002004,1.00272306,106.9499,203.6156,338.8799
36395,SDO,IGO,22309.96801521,1 36395U 10005A   22309.96801521 -.00000039  00000-0  00000+0 0  8531\,2 36395  31.9303 106.9338 0002000 202.6149 342.4245  1.00272381 46809,31.9303,0.0002,1.00272381,106.9338,202.6149,342.4245
36395,SDO,IGO,22310.47001878,1 36395U 10005A   22310.47001878 -.00000039  00000-0  00000-0 0    12\,2 36395  31.9313 106.9257 0001986 202.4611 163.8014  1.00272395 46842,31.9313,0.0001986,1.00272395,106.9257,202.4611,163.8014
36395,SDO,IGO,22311.43548718,1 36395U 10005A   22311.43548718 -.00000041  00000-0  00000-0 0    11\,2 36395  31.9333 106.9102 0001974 201.6263 153.1702  1.00272472 46846,31.9333,0.0001974,1.00272472,106.9102,201.6263,153.1702
36395,SDO,IGO,22313.45863365,1 36395U 10005A   22313.45863365 -.00000046  00000-0  00000-0 0    18\,2 36395  31.9372 106.8780 0001920 200.7744 164.3780  1.00272599 46878,31.9372,0.000192,1.00272599,106.878,200.7744,164.378
